<?xml version="1.0" encoding="UTF-8"?>
<kml xmlns="http://www.opengis.net/kml/2.2">
  <Document>
    <name>Exkalibur</name>
    <description/>
    <Style id="icon-1899-0288D1-nodesc-normal">
      <IconStyle>
        <color>ffd18802</color>
        <scale>1</scale>
        <Icon>
          <href>https://www.gstatic.com/mapspro/images/stock/503-wht-blank_maps.png</href>
        </Icon>
        <hotSpot x="32" xunits="pixels" y="64" yunits="insetPixels"/>
      </IconStyle>
      <LabelStyle>
        <scale>0</scale>
      </LabelStyle>
      <BalloonStyle>
        <text><![CDATA[<h3>$[name]</h3>]]></text>
      </BalloonStyle>
    </Style>
    <Style id="icon-1899-0288D1-nodesc-highlight">
      <IconStyle>
        <color>ffd18802</color>
        <scale>1</scale>
        <Icon>
          <href>https://www.gstatic.com/mapspro/images/stock/503-wht-blank_maps.png</href>
        </Icon>
        <hotSpot x="32" xunits="pixels" y="64" yunits="insetPixels"/>
      </IconStyle>
      <LabelStyle>
        <scale>1</scale>
      </LabelStyle>
      <BalloonStyle>
        <text><![CDATA[<h3>$[name]</h3>]]></text>
      </BalloonStyle>
    </Style>
    <StyleMap id="icon-1899-0288D1-nodesc">
      <Pair>
        <key>normal</key>
        <styleUrl>#icon-1899-0288D1-nodesc-normal</styleUrl>
      </Pair>
      <Pair>
        <key>highlight</key>
        <styleUrl>#icon-1899-0288D1-nodesc-highlight</styleUrl>
      </Pair>
    </StyleMap>
    <Style id="line-000000-1200-nodesc-normal">
      <LineStyle>
        <color>ff000000</color>
        <width>1.2</width>
      </LineStyle>
      <BalloonStyle>
        <text><![CDATA[<h3>$[name]</h3>]]></text>
      </BalloonStyle>
    </Style>
    <Style id="line-000000-1200-nodesc-highlight">
      <LineStyle>
        <color>ff000000</color>
        <width>1.8</width>
      </LineStyle>
      <BalloonStyle>
        <text><![CDATA[<h3>$[name]</h3>]]></text>
      </BalloonStyle>
    </Style>
    <StyleMap id="line-000000-1200-nodesc">
      <Pair>
        <key>normal</key>
        <styleUrl>#line-000000-1200-nodesc-normal</styleUrl>
      </Pair>
      <Pair>
        <key>highlight</key>
        <styleUrl>#line-000000-1200-nodesc-highlight</styleUrl>
      </Pair>
    </StyleMap>
    <Folder>
      <name>Epée - énigme 1</name>
      <Placemark>
        <name>Cathédrale de León</name>
        <styleUrl>#icon-1899-0288D1-nodesc</styleUrl>
        <Point>
          <coordinates>
            -5.5671632,42.5994383,0
          </coordinates>
        </Point>
      </Placemark>
      <Placemark>
        <name>Château de Foix</name>
        <styleUrl>#icon-1899-0288D1-nodesc</styleUrl>
        <Point>
          <coordinates>
            1.604881,42.965574,0
          </coordinates>
        </Point>
      </Placemark>
      <Placemark>
        <name>Cathédrale Sainte-Marie de Valence</name>
        <styleUrl>#icon-1899-0288D1-nodesc</styleUrl>
        <Point>
          <coordinates>
            -0.3754667,39.4752858,0
          </coordinates>
        </Point>
      </Placemark>
      <Placemark>
        <name><![CDATA[Château d'Urquhart]]></name>
        <styleUrl>#icon-1899-0288D1-nodesc</styleUrl>
        <Point>
          <coordinates>
            -4.4420013,57.3241399,0
          </coordinates>
        </Point>
      </Placemark>
      <Placemark>
        <name>Ligne 5</name>
        <styleUrl>#line-000000-1200-nodesc</styleUrl>
        <LineString>
          <tessellate>1</tessellate>
          <coordinates>
            -4.4420013,57.3241399,0
            -0.3754667,39.4752858,0
          </coordinates>
        </LineString>
      </Placemark>
      <Placemark>
        <name>Ligne 6</name>
        <styleUrl>#line-000000-1200-nodesc</styleUrl>
        <LineString>
          <tessellate>1</tessellate>
          <coordinates>
            -5.5671632,42.5994383,0
            1.604881,42.965574,0
          </coordinates>
        </LineString>
      </Placemark>
      <Placemark>
        <name>Ligne 8</name>
        <styleUrl>#line-000000-1200-nodesc</styleUrl>
        <LineString>
          <tessellate>1</tessellate>
          <coordinates>
            2.2914706,48.8621597,0
            2.3334418,48.8673543,0
            2.3497497,48.8671284,0
            2.3506938,48.8278733,0
            2.2867499,48.8282688,0
            2.2869216,48.8603527,0
          </coordinates>
        </LineString>
      </Placemark>
    </Folder>
    <Folder>
      <name>Enigme 2</name>
      <Placemark>
        <name>Tour de Londres</name>
        <styleUrl>#icon-1899-0288D1-nodesc</styleUrl>
        <Point>
          <coordinates>
            -0.0759493,51.5081124,0
          </coordinates>
        </Point>
      </Placemark>
    </Folder>
    <Folder>
      <name>Enigme 3 </name>
      <Placemark>
        <name>Château de Tintagel</name>
        <styleUrl>#icon-1899-0288D1-nodesc</styleUrl>
        <Point>
          <coordinates>
            -4.7585053,50.6672813,0
          </coordinates>
        </Point>
      </Placemark>
      <Placemark>
        <name>Ligne 3</name>
        <styleUrl>#line-000000-1200-nodesc</styleUrl>
        <LineString>
          <tessellate>1</tessellate>
          <coordinates>
            -4.7585053,50.6672813,0
            -1.1005385,51.3538459,0
            -0.1272993,51.4993695,0
          </coordinates>
        </LineString>
      </Placemark>
    </Folder>
    <Folder>
      <name>Enigme 4</name>
      <Placemark>
        <name>Abbaye de Westminster</name>
        <styleUrl>#icon-1899-0288D1-nodesc</styleUrl>
        <Point>
          <coordinates>
            -0.1272993,51.4993695,0
          </coordinates>
        </Point>
      </Placemark>
      <Placemark>
        <name>Silchester</name>
        <styleUrl>#icon-1899-0288D1-nodesc</styleUrl>
        <Point>
          <coordinates>
            -1.1005385,51.3538459,0
          </coordinates>
        </Point>
      </Placemark>
    </Folder>
    <Folder>
      <name>Enigme 5 </name>
      <Placemark>
        <name>Stonehenge</name>
        <styleUrl>#icon-1899-0288D1-nodesc</styleUrl>
        <Point>
          <coordinates>
            -1.826215,51.178882,0
          </coordinates>
        </Point>
      </Placemark>
      <Placemark>
        <name>Alignements du Ménec</name>
        <styleUrl>#icon-1899-0288D1-nodesc</styleUrl>
        <Point>
          <coordinates>
            -3.0835991,47.5918383,0
          </coordinates>
        </Point>
      </Placemark>
    </Folder>
    <Folder>
      <name>Enigme 6</name>
      <Placemark>
        <name>Hastings</name>
        <styleUrl>#icon-1899-0288D1-nodesc</styleUrl>
        <Point>
          <coordinates>
            0.573453,50.854259,0
          </coordinates>
        </Point>
      </Placemark>
    </Folder>
    <Folder>
      <name>Enigme 7</name>
      <Placemark>
        <name>Clermont</name>
        <styleUrl>#icon-1899-0288D1-nodesc</styleUrl>
        <Point>
          <coordinates>
            3.0858573,45.7787583,0
          </coordinates>
        </Point>
      </Placemark>
      <Placemark>
        <name>Abbaye de Cluny</name>
        <styleUrl>#icon-1899-0288D1-nodesc</styleUrl>
        <Point>
          <coordinates>
            4.6585012,46.4348054,0
          </coordinates>
        </Point>
      </Placemark>
      <Placemark>
        <name>Ligne 2</name>
        <styleUrl>#line-000000-1200-nodesc</styleUrl>
        <LineString>
          <tessellate>1</tessellate>
          <coordinates>
            4.6585012,46.4348054,0
            3.0858573,45.7787583,0
          </coordinates>
        </LineString>
      </Placemark>
      <Placemark>
        <name>Cloître de Cadouin</name>
        <styleUrl>#icon-1899-0288D1-nodesc</styleUrl>
        <Point>
          <coordinates>
            0.8737598,44.8114955,0
          </coordinates>
        </Point>
      </Placemark>
      <Placemark>
        <name>Ligne 3</name>
        <styleUrl>#line-000000-1200-nodesc</styleUrl>
        <LineString>
          <tessellate>1</tessellate>
          <coordinates>
            3.0858573,45.7787583,0
            0.8737598,44.8114955,0
          </coordinates>
        </LineString>
      </Placemark>
      <Placemark>
        <name>Sainte-Chapelle</name>
        <styleUrl>#icon-1899-0288D1-nodesc</styleUrl>
        <Point>
          <coordinates>
            2.3449609,48.855375,0
          </coordinates>
        </Point>
      </Placemark>
      <Placemark>
        <name>Ligne 7</name>
        <styleUrl>#line-000000-1200-nodesc</styleUrl>
        <LineString>
          <tessellate>1</tessellate>
          <coordinates>
            -0.0759493,51.5081124,0
            2.3449609,48.855375,0
          </coordinates>
        </LineString>
      </Placemark>
      <Placemark>
        <name>Forêt de Brocéliande</name>
        <styleUrl>#icon-1899-0288D1-nodesc</styleUrl>
        <Point>
          <coordinates>
            -2.1739626,48.018829,0
          </coordinates>
        </Point>
      </Placemark>
      <Placemark>
        <name>Garde brocéliande</name>
        <styleUrl>#line-000000-1200-nodesc</styleUrl>
        <LineString>
          <tessellate>1</tessellate>
          <coordinates>
            -2.1739626,48.018829,0
            2.3449609,48.855375,0
          </coordinates>
        </LineString>
      </Placemark>
    </Folder>
  </Document>
</kml>
