<?xml version="1.0" encoding="UTF-8"?>
<kml xmlns="http://www.opengis.net/kml/2.2"><Document><name>E12 clairière Bretonnières</name>
<Placemark><name>Sommet tour d'Avalon (départ)</name><Point><coordinates>6.03101275,45.4288723,0</coordinates></Point></Placemark>
<Placemark><name>Rue du Rempart</name><Point><coordinates>6.03118,45.42977,0</coordinates></Point></Placemark>
<Placemark><name>Le Vivier</name><Point><coordinates>6.03404,45.42898,0</coordinates></Point></Placemark>
<Placemark><name>CLAIRIÈRE Guilhem (1 844 m, -0,3 %)</name><Point><coordinates>6.0504879,45.4382069,0</coordinates></Point></Placemark>
<Placemark><name>Sentier bord SE x anneau 1850 m</name><Point><coordinates>6.05109,45.43766,0</coordinates></Point></Placemark>
<Placemark><name>Rayon lever solstice x anneau</name><Point><coordinates>6.05126,45.43747,0</coordinates></Point></Placemark>
<Placemark><name>Cercle LiDAR dans le pré</name><Point><coordinates>6.05092,45.43827,0</coordinates></Point></Placemark>
<Placemark><name>Passerelle Burge</name><Point><coordinates>6.05264,45.43887,0</coordinates></Point></Placemark>
<Placemark><name>Cascade Burge</name><Point><coordinates>6.05279,45.43884,0</coordinates></Point></Placemark>
<Placemark><name>Nœud Les Gorges</name><Point><coordinates>6.05302,45.43917,0</coordinates></Point></Placemark>
<Placemark><name>Pont des Bretonnières</name><Point><coordinates>6.05296,45.43953,0</coordinates></Point></Placemark>
<Placemark><name>10 stades depuis le sommet de la tour</name><LineString><coordinates>6.031013,45.445518,0 6.031116,45.445518,0 6.031219,45.445517,0 6.031322,45.445516,0 6.031425,45.445515,0 6.031529,45.445514,0 6.031632,45.445512,0 6.031735,45.445510,0 6.031838,45.445508,0 6.031941,45.445505,0 6.032044,45.445502,0 6.032147,45.445499,0 6.032250,45.445495,0 6.032353,45.445491,0 6.032456,45.445487,0 6.032559,45.445482,0 6.032662,45.445477,0 6.032765,45.445472,0 6.032868,45.445467,0 6.032971,45.445461,0 6.033074,45.445455,0 6.033177,45.445448,0 6.033279,45.445441,0 6.033382,45.445434,0 6.033485,45.445427,0 6.033587,45.445419,0 6.033690,45.445411,0 6.033792,45.445403,0 6.033895,45.445394,0 6.033997,45.445385,0 6.034099,45.445375,0 6.034202,45.445366,0 6.034304,45.445356,0 6.034406,45.445346,0 6.034508,45.445335,0 6.034610,45.445324,0 6.034712,45.445313,0 6.034814,45.445301,0 6.034916,45.445290,0 6.035017,45.445277,0 6.035119,45.445265,0 6.035221,45.445252,0 6.035322,45.445239,0 6.035423,45.445226,0 6.035525,45.445212,0 6.035626,45.445198,0 6.035727,45.445184,0 6.035828,45.445169,0 6.035929,45.445154,0 6.036030,45.445139,0 6.036131,45.445123,0 6.036232,45.445107,0 6.036332,45.445091,0 6.036433,45.445075,0 6.036533,45.445058,0 6.036633,45.445041,0 6.036733,45.445023,0 6.036834,45.445006,0 6.036933,45.444988,0 6.037033,45.444969,0 6.037133,45.444951,0 6.037233,45.444932,0 6.037332,45.444912,0 6.037431,45.444893,0 6.037531,45.444873,0 6.037630,45.444853,0 6.037729,45.444832,0 6.037828,45.444811,0 6.037926,45.444790,0 6.038025,45.444769,0 6.038123,45.444747,0 6.038222,45.444725,0 6.038320,45.444703,0 6.038418,45.444680,0 6.038516,45.444657,0 6.038614,45.444634,0 6.038711,45.444611,0 6.038809,45.444587,0 6.038906,45.444563,0 6.039003,45.444538,0 6.039100,45.444514,0 6.039197,45.444489,0 6.039294,45.444463,0 6.039391,45.444438,0 6.039487,45.444412,0 6.039583,45.444386,0 6.039679,45.444359,0 6.039775,45.444333,0 6.039871,45.444306,0 6.039967,45.444278,0 6.040062,45.444250,0 6.040157,45.444223,0 6.040252,45.444194,0 6.040347,45.444166,0 6.040442,45.444137,0 6.040536,45.444108,0 6.040631,45.444078,0 6.040725,45.444049,0 6.040819,45.444019,0 6.040913,45.443988,0 6.041006,45.443958,0 6.041100,45.443927,0 6.041193,45.443896,0 6.041286,45.443865,0 6.041379,45.443833,0 6.041471,45.443801,0 6.041564,45.443769,0 6.041656,45.443736,0 6.041748,45.443703,0 6.041840,45.443670,0 6.041931,45.443637,0 6.042023,45.443603,0 6.042114,45.443569,0 6.042205,45.443535,0 6.042296,45.443500,0 6.042386,45.443465,0 6.042477,45.443430,0 6.042567,45.443395,0 6.042657,45.443359,0 6.042746,45.443323,0 6.042836,45.443287,0 6.042925,45.443251,0 6.043014,45.443214,0 6.043103,45.443177,0 6.043191,45.443140,0 6.043280,45.443102,0 6.043368,45.443064,0 6.043456,45.443026,0 6.043543,45.442988,0 6.043631,45.442949,0 6.043718,45.442910,0 6.043805,45.442871,0 6.043891,45.442832,0 6.043978,45.442792,0 6.044064,45.442752,0 6.044150,45.442712,0 6.044235,45.442671,0 6.044321,45.442631,0 6.044406,45.442590,0 6.044491,45.442548,0 6.044575,45.442507,0 6.044660,45.442465,0 6.044744,45.442423,0 6.044828,45.442381,0 6.044911,45.442338,0 6.044995,45.442295,0 6.045078,45.442252,0 6.045161,45.442209,0 6.045243,45.442165,0 6.045325,45.442121,0 6.045407,45.442077,0 6.045489,45.442033,0 6.045571,45.441988,0 6.045652,45.441943,0 6.045733,45.441898,0 6.045813,45.441853,0 6.045893,45.441807,0 6.045973,45.441762,0 6.046053,45.441715,0 6.046133,45.441669,0 6.046212,45.441623,0 6.046291,45.441576,0 6.046369,45.441529,0 6.046448,45.441481,0 6.046526,45.441434,0 6.046603,45.441386,0 6.046681,45.441338,0 6.046758,45.441290,0 6.046835,45.441241,0 6.046911,45.441193,0 6.046987,45.441144,0 6.047063,45.441094,0 6.047139,45.441045,0 6.047214,45.440995,0 6.047289,45.440945,0 6.047364,45.440895,0 6.047438,45.440845,0 6.047512,45.440794,0 6.047586,45.440744,0 6.047659,45.440693,0 6.047732,45.440641,0 6.047805,45.440590,0 6.047878,45.440538,0 6.047950,45.440486,0 6.048022,45.440434,0 6.048093,45.440382,0 6.048164,45.440329,0 6.048235,45.440276,0 6.048306,45.440223,0 6.048376,45.440170,0 6.048446,45.440117,0 6.048515,45.440063,0 6.048584,45.440009,0 6.048653,45.439955,0 6.048722,45.439901,0 6.048790,45.439846,0 6.048858,45.439791,0 6.048925,45.439736,0 6.048992,45.439681,0 6.049059,45.439626,0 6.049126,45.439570,0 6.049192,45.439515,0 6.049258,45.439459,0 6.049323,45.439403,0 6.049388,45.439346,0 6.049453,45.439290,0 6.049517,45.439233,0 6.049581,45.439176,0 6.049645,45.439119,0 6.049708,45.439062,0 6.049771,45.439004,0 6.049834,45.438946,0 6.049896,45.438888,0 6.049958,45.438830,0 6.050019,45.438772,0 6.050081,45.438713,0 6.050141,45.438655,0 6.050202,45.438596,0 6.050262,45.438537,0 6.050322,45.438478,0 6.050381,45.438418,0 6.050440,45.438359,0 6.050499,45.438299,0 6.050557,45.438239,0 6.050615,45.438179,0 6.050672,45.438118,0 6.050729,45.438058,0 6.050786,45.437997,0 6.050842,45.437936,0 6.050898,45.437875,0 6.050954,45.437814,0 6.051009,45.437753,0 6.051064,45.437691,0 6.051118,45.437630,0 6.051172,45.437568,0 6.051226,45.437506,0 6.051279,45.437444,0 6.051332,45.437381,0 6.051385,45.437319,0 6.051437,45.437256,0 6.051489,45.437193,0 6.051540,45.437130,0 6.051591,45.437067,0 6.051642,45.437004,0 6.051692,45.436940,0 6.051742,45.436877,0 6.051791,45.436813,0 6.051840,45.436749,0 6.051889,45.436685,0 6.051937,45.436621,0 6.051985,45.436556,0 6.052032,45.436492,0 6.052079,45.436427,0 6.052126,45.436363,0 6.052172,45.436298,0 6.052218,45.436233,0 6.052263,45.436167,0 6.052308,45.436102,0 6.052353,45.436036,0 6.052397,45.435971,0 6.052441,45.435905,0 6.052484,45.435839,0 6.052527,45.435773,0 6.052570,45.435707,0 6.052612,45.435641,0 6.052653,45.435574,0 6.052695,45.435508,0 6.052736,45.435441,0 6.052776,45.435374,0 6.052816,45.435307,0 6.052856,45.435240,0 6.052895,45.435173,0 6.052934,45.435106,0 6.052972,45.435038,0 6.053010,45.434971,0 6.053048,45.434903,0 6.053085,45.434835,0 6.053122,45.434768,0 6.053158,45.434700,0 6.053194,45.434631,0 6.053230,45.434563,0 6.053265,45.434495,0 6.053299,45.434427,0 6.053333,45.434358,0 6.053367,45.434289,0 6.053401,45.434221,0 6.053433,45.434152,0 6.053466,45.434083,0 6.053498,45.434014,0 6.053530,45.433945,0 6.053561,45.433876,0 6.053592,45.433806,0 6.053622,45.433737,0 6.053652,45.433667,0 6.053681,45.433598,0 6.053710,45.433528,0 6.053739,45.433458,0 6.053767,45.433388,0 6.053795,45.433318,0 6.053822,45.433248,0 6.053849,45.433178,0 6.053876,45.433108,0 6.053902,45.433038,0 6.053927,45.432967,0 6.053952,45.432897,0 6.053977,45.432826,0 6.054001,45.432756,0 6.054025,45.432685,0 6.054049,45.432614,0 6.054072,45.432544,0 6.054094,45.432473,0 6.054116,45.432402,0 6.054138,45.432331,0 6.054159,45.432260,0 6.054180,45.432189,0 6.054200,45.432117,0 6.054220,45.432046,0 6.054239,45.431975,0 6.054258,45.431903,0 6.054277,45.431832,0 6.054295,45.431760,0 6.054313,45.431689,0 6.054330,45.431617,0 6.054347,45.431546,0 6.054363,45.431474,0 6.054379,45.431402,0 6.054394,45.431330,0 6.054409,45.431258,0 6.054424,45.431187,0 6.054438,45.431115,0 6.054452,45.431043,0 6.054465,45.430971,0 6.054478,45.430898,0 6.054490,45.430826,0 6.054502,45.430754,0 6.054513,45.430682,0 6.054524,45.430610,0 6.054535,45.430538,0 6.054545,45.430465,0 6.054554,45.430393,0 6.054564,45.430321,0 6.054572,45.430248,0 6.054581,45.430176,0 6.054588,45.430103,0 6.054596,45.430031,0 6.054603,45.429959,0 6.054609,45.429886,0 6.054615,45.429814,0 6.054621,45.429741,0 6.054626,45.429668,0 6.054631,45.429596,0 6.054635,45.429523,0 6.054639,45.429451,0 6.054642,45.429378,0 6.054645,45.429306,0 6.054648,45.429233,0 6.054650,45.429160,0 6.054651,45.429088,0 6.054652,45.429015,0 6.054653,45.428942,0 6.054653,45.428870,0 6.054653,45.428797,0 6.054652,45.428725,0 6.054651,45.428652,0 6.054649,45.428579,0 6.054647,45.428507,0 6.054645,45.428434,0 6.054642,45.428362,0 6.054638,45.428289,0 6.054634,45.428216,0 6.054630,45.428144,0 6.054625,45.428071,0 6.054620,45.427999,0 6.054615,45.427926,0 6.054608,45.427854,0 6.054602,45.427781,0 6.054595,45.427709,0 6.054587,45.427636,0 6.054580,45.427564,0 6.054571,45.427491,0 6.054562,45.427419,0 6.054553,45.427347,0 6.054543,45.427274,0 6.054533,45.427202,0 6.054523,45.427130,0 6.054512,45.427058,0 6.054500,45.426986,0 6.054488,45.426913,0 6.054476,45.426841,0 6.054463,45.426769,0 6.054450,45.426697,0 6.054436,45.426625,0 6.054422,45.426553,0 6.054407,45.426481,0 6.054392,45.426410,0 6.054377,45.426338,0 6.054361,45.426266,0 6.054344,45.426194,0 6.054328,45.426123,0 6.054310,45.426051,0 6.054293,45.425979,0 6.054274,45.425908,0 6.054256,45.425837,0 6.054237,45.425765,0 6.054217,45.425694,0 6.054197,45.425623,0 6.054177,45.425551,0 6.054156,45.425480,0 6.054135,45.425409,0 6.054113,45.425338,0 6.054091,45.425267,0 6.054069,45.425196,0 6.054046,45.425126,0 6.054022,45.425055,0 6.053998,45.424984,0 6.053974,45.424914,0 6.053949,45.424843,0 6.053924,45.424773,0 6.053898,45.424702,0 6.053872,45.424632,0 6.053846,45.424562,0 6.053819,45.424492,0 6.053791,45.424422,0 6.053764,45.424352,0 6.053735,45.424282,0 6.053707,45.424212,0 6.053678,45.424142,0 6.053648,45.424073,0 6.053618,45.424003,0 6.053588,45.423934,0 6.053557,45.423865,0 6.053526,45.423795,0 6.053494,45.423726,0 6.053462,45.423657,0 6.053429,45.423588,0 6.053396,45.423520,0 6.053363,45.423451,0 6.053329,45.423382,0 6.053295,45.423314,0 6.053260,45.423245,0 6.053225,45.423177,0 6.053190,45.423109,0 6.053154,45.423041,0 6.053117,45.422973,0 6.053080,45.422905,0 6.053043,45.422837,0 6.053006,45.422770,0 6.052968,45.422702,0 6.052929,45.422635,0 6.052890,45.422567,0 6.052851,45.422500,0 6.052811,45.422433,0 6.052771,45.422366,0 6.052731,45.422299,0 6.052690,45.422233,0 6.052648,45.422166,0 6.052607,45.422100,0 6.052564,45.422034,0 6.052522,45.421967,0 6.052479,45.421901,0 6.052435,45.421836,0 6.052392,45.421770,0 6.052347,45.421704,0 6.052303,45.421639,0 6.052258,45.421573,0 6.052212,45.421508,0 6.052166,45.421443,0 6.052120,45.421378,0 6.052074,45.421313,0 6.052026,45.421249,0 6.051979,45.421184,0 6.051931,45.421120,0 6.051883,45.421056,0 6.051834,45.420992,0 6.051785,45.420928,0 6.051736,45.420864,0 6.051686,45.420800,0 6.051636,45.420737,0 6.051585,45.420674,0 6.051534,45.420611,0 6.051483,45.420548,0 6.051431,45.420485,0 6.051379,45.420422,0 6.051326,45.420360,0 6.051273,45.420297,0 6.051220,45.420235,0 6.051166,45.420173,0 6.051112,45.420111,0 6.051058,45.420050,0 6.051003,45.419988,0 6.050948,45.419927,0 6.050892,45.419866,0 6.050836,45.419805,0 6.050780,45.419744,0 6.050723,45.419683,0 6.050666,45.419623,0 6.050608,45.419562,0 6.050550,45.419502,0 6.050492,45.419442,0 6.050433,45.419383,0 6.050374,45.419323,0 6.050315,45.419264,0 6.050255,45.419204,0 6.050195,45.419145,0 6.050135,45.419087,0 6.050074,45.419028,0 6.050013,45.418970,0 6.049951,45.418911,0 6.049889,45.418853,0 6.049827,45.418795,0 6.049764,45.418738,0 6.049701,45.418680,0 6.049638,45.418623,0 6.049574,45.418566,0 6.049510,45.418509,0 6.049446,45.418452,0 6.049381,45.418395,0 6.049316,45.418339,0 6.049251,45.418283,0 6.049185,45.418227,0 6.049119,45.418171,0 6.049052,45.418116,0 6.048985,45.418060,0 6.048918,45.418005,0 6.048851,45.417950,0 6.048783,45.417896,0 6.048715,45.417841,0 6.048646,45.417787,0 6.048577,45.417733,0 6.048508,45.417679,0 6.048439,45.417625,0 6.048369,45.417572,0 6.048299,45.417519,0 6.048228,45.417466,0 6.048157,45.417413,0 6.048086,45.417360,0 6.048015,45.417308,0 6.047943,45.417256,0 6.047871,45.417204,0 6.047798,45.417152,0 6.047725,45.417101,0 6.047652,45.417050,0 6.047579,45.416999,0 6.047505,45.416948,0 6.047431,45.416897,0 6.047357,45.416847,0 6.047282,45.416797,0 6.047207,45.416747,0 6.047132,45.416697,0 6.047056,45.416648,0 6.046980,45.416599,0 6.046904,45.416550,0 6.046828,45.416501,0 6.046751,45.416453,0 6.046674,45.416404,0 6.046596,45.416356,0 6.046519,45.416309,0 6.046441,45.416261,0 6.046362,45.416214,0 6.046284,45.416167,0 6.046205,45.416120,0 6.046126,45.416073,0 6.046046,45.416027,0 6.045967,45.415981,0 6.045887,45.415935,0 6.045806,45.415890,0 6.045726,45.415844,0 6.045645,45.415799,0 6.045564,45.415754,0 6.045482,45.415710,0 6.045401,45.415665,0 6.045319,45.415621,0 6.045236,45.415578,0 6.045154,45.415534,0 6.045071,45.415491,0 6.044988,45.415448,0 6.044905,45.415405,0 6.044821,45.415362,0 6.044737,45.415320,0 6.044653,45.415278,0 6.044569,45.415236,0 6.044484,45.415195,0 6.044399,45.415153,0 6.044314,45.415112,0 6.044229,45.415072,0 6.044143,45.415031,0 6.044057,45.414991,0 6.043971,45.414951,0 6.043885,45.414911,0 6.043798,45.414872,0 6.043711,45.414833,0 6.043624,45.414794,0 6.043537,45.414755,0 6.043449,45.414717,0 6.043362,45.414679,0 6.043274,45.414641,0 6.043185,45.414604,0 6.043097,45.414566,0 6.043008,45.414529,0 6.042919,45.414493,0 6.042830,45.414456,0 6.042740,45.414420,0 6.042651,45.414384,0 6.042561,45.414348,0 6.042471,45.414313,0 6.042381,45.414278,0 6.042290,45.414243,0 6.042199,45.414209,0 6.042108,45.414175,0 6.042017,45.414141,0 6.041926,45.414107,0 6.041834,45.414074,0 6.041742,45.414040,0 6.041650,45.414008,0 6.041558,45.413975,0 6.041466,45.413943,0 6.041373,45.413911,0 6.041280,45.413879,0 6.041187,45.413848,0 6.041094,45.413817,0 6.041001,45.413786,0 6.040907,45.413755,0 6.040814,45.413725,0 6.040720,45.413695,0 6.040626,45.413665,0 6.040531,45.413636,0 6.040437,45.413607,0 6.040342,45.413578,0 6.040247,45.413550,0 6.040152,45.413521,0 6.040057,45.413493,0 6.039962,45.413466,0 6.039866,45.413438,0 6.039770,45.413411,0 6.039675,45.413385,0 6.039579,45.413358,0 6.039482,45.413332,0 6.039386,45.413306,0 6.039289,45.413280,0 6.039193,45.413255,0 6.039096,45.413230,0 6.038999,45.413206,0 6.038902,45.413181,0 6.038805,45.413157,0 6.038707,45.413133,0 6.038610,45.413110,0 6.038512,45.413087,0 6.038414,45.413064,0 6.038316,45.413041,0 6.038218,45.413019,0 6.038120,45.412997,0 6.038021,45.412975,0 6.037923,45.412954,0 6.037824,45.412933,0 6.037725,45.412912,0 6.037626,45.412891,0 6.037527,45.412871,0 6.037428,45.412851,0 6.037329,45.412832,0 6.037229,45.412813,0 6.037130,45.412794,0 6.037030,45.412775,0 6.036930,45.412757,0 6.036830,45.412739,0 6.036730,45.412721,0 6.036630,45.412704,0 6.036530,45.412686,0 6.036430,45.412670,0 6.036329,45.412653,0 6.036229,45.412637,0 6.036128,45.412621,0 6.036027,45.412606,0 6.035926,45.412590,0 6.035826,45.412575,0 6.035724,45.412561,0 6.035623,45.412546,0 6.035522,45.412532,0 6.035421,45.412519,0 6.035320,45.412505,0 6.035218,45.412492,0 6.035117,45.412479,0 6.035015,45.412467,0 6.034913,45.412455,0 6.034812,45.412443,0 6.034710,45.412432,0 6.034608,45.412420,0 6.034506,45.412409,0 6.034404,45.412399,0 6.034302,45.412389,0 6.034200,45.412379,0 6.034098,45.412369,0 6.033995,45.412360,0 6.033893,45.412351,0 6.033791,45.412342,0 6.033688,45.412334,0 6.033586,45.412326,0 6.033483,45.412318,0 6.033381,45.412310,0 6.033278,45.412303,0 6.033175,45.412296,0 6.033073,45.412290,0 6.032970,45.412284,0 6.032867,45.412278,0 6.032764,45.412272,0 6.032661,45.412267,0 6.032558,45.412262,0 6.032456,45.412258,0 6.032353,45.412253,0 6.032250,45.412249,0 6.032147,45.412246,0 6.032044,45.412242,0 6.031941,45.412239,0 6.031838,45.412237,0 6.031734,45.412234,0 6.031631,45.412232,0 6.031528,45.412231,0 6.031425,45.412229,0 6.031322,45.412228,0 6.031219,45.412227,0 6.031116,45.412227,0 6.031013,45.412227,0 6.030910,45.412227,0 6.030807,45.412227,0 6.030703,45.412228,0 6.030600,45.412229,0 6.030497,45.412231,0 6.030394,45.412232,0 6.030291,45.412234,0 6.030188,45.412237,0 6.030085,45.412239,0 6.029982,45.412242,0 6.029879,45.412246,0 6.029776,45.412249,0 6.029673,45.412253,0 6.029570,45.412258,0 6.029467,45.412262,0 6.029364,45.412267,0 6.029261,45.412272,0 6.029159,45.412278,0 6.029056,45.412284,0 6.028953,45.412290,0 6.028850,45.412296,0 6.028748,45.412303,0 6.028645,45.412310,0 6.028542,45.412318,0 6.028440,45.412326,0 6.028337,45.412334,0 6.028235,45.412342,0 6.028133,45.412351,0 6.028030,45.412360,0 6.027928,45.412369,0 6.027826,45.412379,0 6.027724,45.412389,0 6.027622,45.412399,0 6.027520,45.412409,0 6.027418,45.412420,0 6.027316,45.412432,0 6.027214,45.412443,0 6.027112,45.412455,0 6.027010,45.412467,0 6.026909,45.412479,0 6.026807,45.412492,0 6.026706,45.412505,0 6.026605,45.412519,0 6.026503,45.412532,0 6.026402,45.412546,0 6.026301,45.412561,0 6.026200,45.412575,0 6.026099,45.412590,0 6.025998,45.412606,0 6.025898,45.412621,0 6.025797,45.412637,0 6.025696,45.412653,0 6.025596,45.412670,0 6.025496,45.412686,0 6.025395,45.412704,0 6.025295,45.412721,0 6.025195,45.412739,0 6.025095,45.412757,0 6.024996,45.412775,0 6.024896,45.412794,0 6.024796,45.412813,0 6.024697,45.412832,0 6.024598,45.412851,0 6.024498,45.412871,0 6.024399,45.412891,0 6.024300,45.412912,0 6.024202,45.412933,0 6.024103,45.412954,0 6.024004,45.412975,0 6.023906,45.412997,0 6.023808,45.413019,0 6.023710,45.413041,0 6.023612,45.413064,0 6.023514,45.413087,0 6.023416,45.413110,0 6.023318,45.413133,0 6.023221,45.413157,0 6.023124,45.413181,0 6.023027,45.413206,0 6.022930,45.413230,0 6.022833,45.413255,0 6.022736,45.413280,0 6.022640,45.413306,0 6.022543,45.413332,0 6.022447,45.413358,0 6.022351,45.413385,0 6.022255,45.413411,0 6.022159,45.413438,0 6.022064,45.413466,0 6.021968,45.413493,0 6.021873,45.413521,0 6.021778,45.413550,0 6.021683,45.413578,0 6.021589,45.413607,0 6.021494,45.413636,0 6.021400,45.413665,0 6.021306,45.413695,0 6.021212,45.413725,0 6.021118,45.413755,0 6.021025,45.413786,0 6.020931,45.413817,0 6.020838,45.413848,0 6.020745,45.413879,0 6.020652,45.413911,0 6.020560,45.413943,0 6.020467,45.413975,0 6.020375,45.414008,0 6.020283,45.414040,0 6.020191,45.414074,0 6.020100,45.414107,0 6.020008,45.414141,0 6.019917,45.414175,0 6.019826,45.414209,0 6.019736,45.414243,0 6.019645,45.414278,0 6.019555,45.414313,0 6.019465,45.414348,0 6.019375,45.414384,0 6.019285,45.414420,0 6.019196,45.414456,0 6.019106,45.414493,0 6.019017,45.414529,0 6.018929,45.414566,0 6.018840,45.414604,0 6.018752,45.414641,0 6.018664,45.414679,0 6.018576,45.414717,0 6.018488,45.414755,0 6.018401,45.414794,0 6.018314,45.414833,0 6.018227,45.414872,0 6.018141,45.414911,0 6.018054,45.414951,0 6.017968,45.414991,0 6.017882,45.415031,0 6.017797,45.415072,0 6.017711,45.415112,0 6.017626,45.415153,0 6.017541,45.415195,0 6.017457,45.415236,0 6.017372,45.415278,0 6.017288,45.415320,0 6.017204,45.415362,0 6.017121,45.415405,0 6.017037,45.415448,0 6.016954,45.415491,0 6.016872,45.415534,0 6.016789,45.415578,0 6.016707,45.415621,0 6.016625,45.415665,0 6.016543,45.415710,0 6.016462,45.415754,0 6.016381,45.415799,0 6.016300,45.415844,0 6.016219,45.415890,0 6.016139,45.415935,0 6.016059,45.415981,0 6.015979,45.416027,0 6.015900,45.416073,0 6.015821,45.416120,0 6.015742,45.416167,0 6.015663,45.416214,0 6.015585,45.416261,0 6.015507,45.416309,0 6.015429,45.416356,0 6.015352,45.416404,0 6.015275,45.416453,0 6.015198,45.416501,0 6.015121,45.416550,0 6.015045,45.416599,0 6.014969,45.416648,0 6.014894,45.416697,0 6.014818,45.416747,0 6.014743,45.416797,0 6.014669,45.416847,0 6.014594,45.416897,0 6.014520,45.416948,0 6.014447,45.416999,0 6.014373,45.417050,0 6.014300,45.417101,0 6.014227,45.417152,0 6.014155,45.417204,0 6.014083,45.417256,0 6.014011,45.417308,0 6.013939,45.417360,0 6.013868,45.417413,0 6.013797,45.417466,0 6.013727,45.417519,0 6.013657,45.417572,0 6.013587,45.417625,0 6.013517,45.417679,0 6.013448,45.417733,0 6.013379,45.417787,0 6.013311,45.417841,0 6.013243,45.417896,0 6.013175,45.417950,0 6.013107,45.418005,0 6.013040,45.418060,0 6.012973,45.418116,0 6.012907,45.418171,0 6.012841,45.418227,0 6.012775,45.418283,0 6.012709,45.418339,0 6.012644,45.418395,0 6.012579,45.418452,0 6.012515,45.418509,0 6.012451,45.418566,0 6.012387,45.418623,0 6.012324,45.418680,0 6.012261,45.418738,0 6.012198,45.418795,0 6.012136,45.418853,0 6.012074,45.418911,0 6.012013,45.418970,0 6.011952,45.419028,0 6.011891,45.419087,0 6.011830,45.419145,0 6.011770,45.419204,0 6.011710,45.419264,0 6.011651,45.419323,0 6.011592,45.419383,0 6.011533,45.419442,0 6.011475,45.419502,0 6.011417,45.419562,0 6.011360,45.419623,0 6.011303,45.419683,0 6.011246,45.419744,0 6.011190,45.419805,0 6.011134,45.419866,0 6.011078,45.419927,0 6.011023,45.419988,0 6.010968,45.420050,0 6.010913,45.420111,0 6.010859,45.420173,0 6.010806,45.420235,0 6.010752,45.420297,0 6.010699,45.420360,0 6.010647,45.420422,0 6.010594,45.420485,0 6.010543,45.420548,0 6.010491,45.420611,0 6.010440,45.420674,0 6.010390,45.420737,0 6.010339,45.420800,0 6.010290,45.420864,0 6.010240,45.420928,0 6.010191,45.420992,0 6.010143,45.421056,0 6.010094,45.421120,0 6.010046,45.421184,0 6.009999,45.421249,0 6.009952,45.421313,0 6.009905,45.421378,0 6.009859,45.421443,0 6.009813,45.421508,0 6.009768,45.421573,0 6.009723,45.421639,0 6.009678,45.421704,0 6.009634,45.421770,0 6.009590,45.421836,0 6.009547,45.421901,0 6.009504,45.421967,0 6.009461,45.422034,0 6.009419,45.422100,0 6.009377,45.422166,0 6.009336,45.422233,0 6.009295,45.422299,0 6.009254,45.422366,0 6.009214,45.422433,0 6.009174,45.422500,0 6.009135,45.422567,0 6.009096,45.422635,0 6.009058,45.422702,0 6.009020,45.422770,0 6.008982,45.422837,0 6.008945,45.422905,0 6.008908,45.422973,0 6.008872,45.423041,0 6.008836,45.423109,0 6.008800,45.423177,0 6.008765,45.423245,0 6.008731,45.423314,0 6.008696,45.423382,0 6.008663,45.423451,0 6.008629,45.423520,0 6.008596,45.423588,0 6.008564,45.423657,0 6.008532,45.423726,0 6.008500,45.423795,0 6.008469,45.423865,0 6.008438,45.423934,0 6.008407,45.424003,0 6.008377,45.424073,0 6.008348,45.424142,0 6.008319,45.424212,0 6.008290,45.424282,0 6.008262,45.424352,0 6.008234,45.424422,0 6.008207,45.424492,0 6.008180,45.424562,0 6.008153,45.424632,0 6.008127,45.424702,0 6.008102,45.424773,0 6.008076,45.424843,0 6.008052,45.424914,0 6.008027,45.424984,0 6.008003,45.425055,0 6.007980,45.425126,0 6.007957,45.425196,0 6.007934,45.425267,0 6.007912,45.425338,0 6.007891,45.425409,0 6.007869,45.425480,0 6.007848,45.425551,0 6.007828,45.425623,0 6.007808,45.425694,0 6.007789,45.425765,0 6.007770,45.425837,0 6.007751,45.425908,0 6.007733,45.425979,0 6.007715,45.426051,0 6.007698,45.426123,0 6.007681,45.426194,0 6.007665,45.426266,0 6.007649,45.426338,0 6.007633,45.426410,0 6.007618,45.426481,0 6.007604,45.426553,0 6.007589,45.426625,0 6.007576,45.426697,0 6.007562,45.426769,0 6.007550,45.426841,0 6.007537,45.426913,0 6.007525,45.426986,0 6.007514,45.427058,0 6.007503,45.427130,0 6.007492,45.427202,0 6.007482,45.427274,0 6.007472,45.427347,0 6.007463,45.427419,0 6.007454,45.427491,0 6.007446,45.427564,0 6.007438,45.427636,0 6.007431,45.427709,0 6.007424,45.427781,0 6.007417,45.427854,0 6.007411,45.427926,0 6.007405,45.427999,0 6.007400,45.428071,0 6.007395,45.428144,0 6.007391,45.428216,0 6.007387,45.428289,0 6.007384,45.428362,0 6.007381,45.428434,0 6.007378,45.428507,0 6.007376,45.428579,0 6.007375,45.428652,0 6.007373,45.428725,0 6.007373,45.428797,0 6.007373,45.428870,0 6.007373,45.428942,0 6.007373,45.429015,0 6.007374,45.429088,0 6.007376,45.429160,0 6.007378,45.429233,0 6.007380,45.429306,0 6.007383,45.429378,0 6.007387,45.429451,0 6.007390,45.429523,0 6.007395,45.429596,0 6.007399,45.429668,0 6.007405,45.429741,0 6.007410,45.429814,0 6.007416,45.429886,0 6.007423,45.429959,0 6.007430,45.430031,0 6.007437,45.430103,0 6.007445,45.430176,0 6.007453,45.430248,0 6.007462,45.430321,0 6.007471,45.430393,0 6.007481,45.430465,0 6.007491,45.430538,0 6.007501,45.430610,0 6.007512,45.430682,0 6.007524,45.430754,0 6.007536,45.430826,0 6.007548,45.430898,0 6.007561,45.430971,0 6.007574,45.431043,0 6.007588,45.431115,0 6.007602,45.431187,0 6.007616,45.431258,0 6.007631,45.431330,0 6.007647,45.431402,0 6.007662,45.431474,0 6.007679,45.431546,0 6.007696,45.431617,0 6.007713,45.431689,0 6.007730,45.431760,0 6.007749,45.431832,0 6.007767,45.431903,0 6.007786,45.431975,0 6.007806,45.432046,0 6.007825,45.432117,0 6.007846,45.432189,0 6.007866,45.432260,0 6.007888,45.432331,0 6.007909,45.432402,0 6.007931,45.432473,0 6.007954,45.432544,0 6.007977,45.432614,0 6.008000,45.432685,0 6.008024,45.432756,0 6.008048,45.432826,0 6.008073,45.432897,0 6.008098,45.432967,0 6.008124,45.433038,0 6.008150,45.433108,0 6.008176,45.433178,0 6.008203,45.433248,0 6.008231,45.433318,0 6.008258,45.433388,0 6.008286,45.433458,0 6.008315,45.433528,0 6.008344,45.433598,0 6.008374,45.433667,0 6.008404,45.433737,0 6.008434,45.433806,0 6.008465,45.433876,0 6.008496,45.433945,0 6.008528,45.434014,0 6.008560,45.434083,0 6.008592,45.434152,0 6.008625,45.434221,0 6.008658,45.434289,0 6.008692,45.434358,0 6.008726,45.434427,0 6.008761,45.434495,0 6.008796,45.434563,0 6.008831,45.434631,0 6.008867,45.434700,0 6.008904,45.434768,0 6.008940,45.434835,0 6.008978,45.434903,0 6.009015,45.434971,0 6.009053,45.435038,0 6.009091,45.435106,0 6.009130,45.435173,0 6.009170,45.435240,0 6.009209,45.435307,0 6.009249,45.435374,0 6.009290,45.435441,0 6.009331,45.435508,0 6.009372,45.435574,0 6.009414,45.435641,0 6.009456,45.435707,0 6.009498,45.435773,0 6.009541,45.435839,0 6.009585,45.435905,0 6.009629,45.435971,0 6.009673,45.436036,0 6.009717,45.436102,0 6.009762,45.436167,0 6.009808,45.436233,0 6.009854,45.436298,0 6.009900,45.436363,0 6.009946,45.436427,0 6.009993,45.436492,0 6.010041,45.436556,0 6.010089,45.436621,0 6.010137,45.436685,0 6.010185,45.436749,0 6.010234,45.436813,0 6.010284,45.436877,0 6.010334,45.436940,0 6.010384,45.437004,0 6.010434,45.437067,0 6.010485,45.437130,0 6.010537,45.437193,0 6.010588,45.437256,0 6.010641,45.437319,0 6.010693,45.437381,0 6.010746,45.437444,0 6.010799,45.437506,0 6.010853,45.437568,0 6.010907,45.437630,0 6.010962,45.437691,0 6.011016,45.437753,0 6.011072,45.437814,0 6.011127,45.437875,0 6.011183,45.437936,0 6.011240,45.437997,0 6.011296,45.438058,0 6.011353,45.438118,0 6.011411,45.438179,0 6.011469,45.438239,0 6.011527,45.438299,0 6.011586,45.438359,0 6.011645,45.438418,0 6.011704,45.438478,0 6.011764,45.438537,0 6.011824,45.438596,0 6.011884,45.438655,0 6.011945,45.438713,0 6.012006,45.438772,0 6.012068,45.438830,0 6.012129,45.438888,0 6.012192,45.438946,0 6.012254,45.439004,0 6.012317,45.439062,0 6.012381,45.439119,0 6.012444,45.439176,0 6.012508,45.439233,0 6.012573,45.439290,0 6.012637,45.439346,0 6.012703,45.439403,0 6.012768,45.439459,0 6.012834,45.439515,0 6.012900,45.439570,0 6.012966,45.439626,0 6.013033,45.439681,0 6.013100,45.439736,0 6.013168,45.439791,0 6.013236,45.439846,0 6.013304,45.439901,0 6.013372,45.439955,0 6.013441,45.440009,0 6.013510,45.440063,0 6.013580,45.440117,0 6.013650,45.440170,0 6.013720,45.440223,0 6.013790,45.440276,0 6.013861,45.440329,0 6.013932,45.440382,0 6.014004,45.440434,0 6.014076,45.440486,0 6.014148,45.440538,0 6.014220,45.440590,0 6.014293,45.440641,0 6.014366,45.440693,0 6.014440,45.440744,0 6.014513,45.440794,0 6.014587,45.440845,0 6.014662,45.440895,0 6.014736,45.440945,0 6.014811,45.440995,0 6.014887,45.441045,0 6.014962,45.441094,0 6.015038,45.441144,0 6.015114,45.441193,0 6.015191,45.441241,0 6.015268,45.441290,0 6.015345,45.441338,0 6.015422,45.441386,0 6.015500,45.441434,0 6.015578,45.441481,0 6.015656,45.441529,0 6.015735,45.441576,0 6.015814,45.441623,0 6.015893,45.441669,0 6.015972,45.441715,0 6.016052,45.441762,0 6.016132,45.441807,0 6.016212,45.441853,0 6.016293,45.441898,0 6.016374,45.441943,0 6.016455,45.441988,0 6.016536,45.442033,0 6.016618,45.442077,0 6.016700,45.442121,0 6.016782,45.442165,0 6.016865,45.442209,0 6.016948,45.442252,0 6.017031,45.442295,0 6.017114,45.442338,0 6.017198,45.442381,0 6.017282,45.442423,0 6.017366,45.442465,0 6.017450,45.442507,0 6.017535,45.442548,0 6.017620,45.442590,0 6.017705,45.442631,0 6.017790,45.442671,0 6.017876,45.442712,0 6.017962,45.442752,0 6.018048,45.442792,0 6.018134,45.442832,0 6.018221,45.442871,0 6.018308,45.442910,0 6.018395,45.442949,0 6.018482,45.442988,0 6.018570,45.443026,0 6.018658,45.443064,0 6.018746,45.443102,0 6.018834,45.443140,0 6.018923,45.443177,0 6.019011,45.443214,0 6.019100,45.443251,0 6.019190,45.443287,0 6.019279,45.443323,0 6.019369,45.443359,0 6.019459,45.443395,0 6.019549,45.443430,0 6.019639,45.443465,0 6.019730,45.443500,0 6.019820,45.443535,0 6.019911,45.443569,0 6.020003,45.443603,0 6.020094,45.443637,0 6.020186,45.443670,0 6.020277,45.443703,0 6.020370,45.443736,0 6.020462,45.443769,0 6.020554,45.443801,0 6.020647,45.443833,0 6.020740,45.443865,0 6.020833,45.443896,0 6.020926,45.443927,0 6.021019,45.443958,0 6.021113,45.443988,0 6.021207,45.444019,0 6.021301,45.444049,0 6.021395,45.444078,0 6.021489,45.444108,0 6.021584,45.444137,0 6.021678,45.444166,0 6.021773,45.444194,0 6.021868,45.444223,0 6.021964,45.444250,0 6.022059,45.444278,0 6.022155,45.444306,0 6.022250,45.444333,0 6.022346,45.444359,0 6.022442,45.444386,0 6.022539,45.444412,0 6.022635,45.444438,0 6.022731,45.444463,0 6.022828,45.444489,0 6.022925,45.444514,0 6.023022,45.444538,0 6.023119,45.444563,0 6.023217,45.444587,0 6.023314,45.444611,0 6.023412,45.444634,0 6.023510,45.444657,0 6.023607,45.444680,0 6.023705,45.444703,0 6.023804,45.444725,0 6.023902,45.444747,0 6.024000,45.444769,0 6.024099,45.444790,0 6.024198,45.444811,0 6.024297,45.444832,0 6.024396,45.444853,0 6.024495,45.444873,0 6.024594,45.444893,0 6.024693,45.444912,0 6.024793,45.444932,0 6.024892,45.444951,0 6.024992,45.444969,0 6.025092,45.444988,0 6.025192,45.445006,0 6.025292,45.445023,0 6.025392,45.445041,0 6.025492,45.445058,0 6.025593,45.445075,0 6.025693,45.445091,0 6.025794,45.445107,0 6.025895,45.445123,0 6.025995,45.445139,0 6.026096,45.445154,0 6.026197,45.445169,0 6.026298,45.445184,0 6.026399,45.445198,0 6.026501,45.445212,0 6.026602,45.445226,0 6.026703,45.445239,0 6.026805,45.445252,0 6.026906,45.445265,0 6.027008,45.445277,0 6.027110,45.445290,0 6.027212,45.445301,0 6.027314,45.445313,0 6.027415,45.445324,0 6.027517,45.445335,0 6.027620,45.445346,0 6.027722,45.445356,0 6.027824,45.445366,0 6.027926,45.445375,0 6.028029,45.445385,0 6.028131,45.445394,0 6.028233,45.445403,0 6.028336,45.445411,0 6.028438,45.445419,0 6.028541,45.445427,0 6.028644,45.445434,0 6.028746,45.445441,0 6.028849,45.445448,0 6.028952,45.445455,0 6.029055,45.445461,0 6.029157,45.445467,0 6.029260,45.445472,0 6.029363,45.445477,0 6.029466,45.445482,0 6.029569,45.445487,0 6.029672,45.445491,0 6.029775,45.445495,0 6.029878,45.445499,0 6.029981,45.445502,0 6.030084,45.445505,0 6.030187,45.445508,0 6.030291,45.445510,0 6.030394,45.445512,0 6.030497,45.445514,0 6.030600,45.445515,0 6.030703,45.445516,0 6.030806,45.445517,0 6.030910,45.445518,0 6.031013,45.445518,0</coordinates></LineString></Placemark>
</Document></kml>
