<?xml version="1.0" encoding="UTF-8"?><kml xmlns="http://www.opengis.net/kml/2.2"><Document><name>E12 piste Machrie 3-11 (03-10)</name><Placemark><name>Départ tour (sommet)</name><Point><coordinates>6.03101275,45.4288723,0</coordinates></Point></Placemark><Placemark><name>Cible 1850 m cap 93,3° (cercle 3 -> cercle 11)</name><Point><coordinates>6.05461,45.42791,0</coordinates></Point></Placemark><Placemark><name>Cible depuis Rue du Rempart</name><Point><coordinates>6.05478,45.42881,0</coordinates></Point></Placemark><Placemark><name>J5 jonction 5 chemins, plate-forme dégagée (Tire-Loup)</name><Point><coordinates>6.05477,45.42696,0</coordinates></Point></Placemark><Placemark><name>Ja jonction chemin/sentier, 41 m du Tapon</name><Point><coordinates>6.05577,45.42907,0</coordinates></Point></Placemark><Placemark><name>J4 jonction</name><Point><coordinates>6.05345,45.42878,0</coordinates></Point></Placemark><Placemark><name>Gorge du Tapon (rive)</name><Point><coordinates>6.05623,45.4269,0</coordinates></Point></Placemark><Placemark><name>Bosse LiDAR 2,5 m près du Tapon (amont)</name><Point><coordinates>6.0579,45.42446,0</coordinates></Point></Placemark><Placemark><name>Bloc LiDAR isolé ?</name><Point><coordinates>6.05569,45.42587,0</coordinates></Point></Placemark><Placemark><name>Prise d'eau du Tapon (aval)</name><Point><coordinates>6.0507,45.43332,0</coordinates></Point></Placemark></Document></kml>