<?xml version="1.0" encoding="UTF-8"?><kml xmlns="http://www.opengis.net/kml/2.2"><Document><name>E12 candidats 03-10</name><Placemark><name>Départ: tour d'Avalon (sommet)</name><Point><coordinates>6.03101275,45.4288723,0</coordinates></Point></Placemark><Placemark><name>Départ: Rue du Rempart</name><Point><coordinates>6.03118,45.42977,0</coordinates></Point></Placemark><Placemark><name>Cascade Ruisseau de la Burge + passerelles + poteau Les Gorges</name><Point><coordinates>6.05279,45.43884,0</coordinates></Point></Placemark><Placemark><name>La Planta - passerelles / prise d'eau du Tapon</name><Point><coordinates>6.04673,45.43595,0</coordinates></Point></Placemark><Placemark><name>Point 1850 m cap 63.7° (lever 30/04/1524) - prés plateau</name><Point><coordinates>6.0524,45.4371,0</coordinates></Point></Placemark><Placemark><name>Sources BD TOPO versant SE (lisière, visibles tour)</name><Point><coordinates>6.04019,45.42177,0</coordinates></Point></Placemark><Placemark><name>Source BD TOPO versant SE</name><Point><coordinates>6.03987,45.421,0</coordinates></Point></Placemark><Placemark><name>Clairière visible + source, versant SE (couloir ligne HT)</name><Point><coordinates>6.03985,45.42193,0</coordinates></Point></Placemark><Placemark><name>Merlin (hameau)</name><Point><coordinates>6.04654,45.44752,0</coordinates></Point></Placemark><Placemark><name>Plan Pinet (hameau, pinède)</name><Point><coordinates>6.05218,45.44456,0</coordinates></Point></Placemark><Placemark><name>Herculée (lieu-dit)</name><Point><coordinates>6.01451,45.41645,0</coordinates></Point></Placemark><Placemark><name>Brame Farine (lieu-dit)</name><Point><coordinates>6.04728,45.40406,0</coordinates></Point></Placemark><Placemark><name>Chante-Merle (lieu-dit)</name><Point><coordinates>6.05142,45.4374,0</coordinates></Point></Placemark></Document></kml>