<?xml version="1.0" encoding="UTF-8"?><kml xmlns="http://www.opengis.net/kml/2.2"><Document><name>T1 candidats Exkalibur</name><Placemark><name>Tour d'Avalon (origine rempart, hypothèse)</name><description>45.4288, 6.0308</description><Point><coordinates>6.030780,45.428800,0</coordinates></Point></Placemark><Placemark><name>Fort Barraux (alternative rempart)</name><description>Wikipedia 45.4358, 5.98723</description><Point><coordinates>5.987230,45.435800,0</coordinates></Point></Placemark><Placemark><name>T01 jonction (tour) 3/5</name><description>score 3.78 ; 2171 m cap 352 ; Chemin/Route empierrée ; filtres : eau≤150m public vue ; ruisseau à 28 m (06T0000000012567332), coule vers 224 ; ruisseau vu depuis la jonction au cap 135 ; alt 255.02 m</description><Point><coordinates>6.026940,45.448250,0</coordinates></Point></Placemark><Placemark><name>T02 jonction (tour) 3/5</name><description>score 3.29 ; 2074 m cap 129 ; Chemin/Sentier ; filtres : eau≤150m public vue ; ruisseau à 31 m (06T0000000007482228), coule vers 271 ; ruisseau vu depuis la jonction au cap 178 ; alt 772.9 m</description><Point><coordinates>6.051500,45.417070,0</coordinates></Point></Placemark><Placemark><name>T03 jonction (tour) 3/5</name><description>score 3.26 ; 2396 m cap 125 ; Chemin/Sentier ; filtres : eau≤150m public vue ; ruisseau à 13 m (06T0000000007482228), coule vers 273 ; ruisseau vu depuis la jonction au cap 2 ; alt 945.92 m</description><Point><coordinates>6.055840,45.416300,0</coordinates></Point></Placemark><Placemark><name>T04 jonction (tour) 3/5</name><description>score 3.26 ; 2400 m cap 126 ; Chemin/Sentier ; filtres : eau≤150m public vue ; ruisseau à 22 m (06T0000000007482228), coule vers 273 ; ruisseau vu depuis la jonction au cap 4 ; alt 945.37 m</description><Point><coordinates>6.055820,45.416220,0</coordinates></Point></Placemark><Placemark><name>T05 jonction (tour) 3/5</name><description>score 2.85 ; 1527 m cap 188 ; Chemin ; filtres : trouée eau≤150m vue ; ruisseau à 83 m (Ruisseau de la Perrière), coule vers 293 ; ruisseau vu depuis la jonction au cap 23 ; alt 422.6 m</description><Point><coordinates>6.028030,45.415120,0</coordinates></Point></Placemark><Placemark><name>T06 jonction (tour) 2/5</name><description>score 2.82 ; 1788 m cap 82 ; Chemin ; filtres : eau≤150m vue ; ruisseau à 45 m (Ruisseau de Tapon), coule vers 338 ; ruisseau vu depuis la jonction au cap 252 ; alt 505.73 m</description><Point><coordinates>6.053450,45.431030,0</coordinates></Point></Placemark><Placemark><name>T07 jonction (tour) 2/5</name><description>score 2.79 ; 2100 m cap 351 ; Chemin/Route empierrée ; filtres : eau≤150m vue ; ruisseau à 7 m (06T0000000012567332), coule vers 217 ; ruisseau vu depuis la jonction au cap 308 ; alt 255.74 m</description><Point><coordinates>6.026740,45.447580,0</coordinates></Point></Placemark><Placemark><name>T08 jonction (tour) 2/5</name><description>score 2.79 ; 2111 m cap 351 ; Chemin/Route empierrée ; filtres : eau≤150m vue ; ruisseau à 8 m (06T0000000012567332), coule vers 217 ; ruisseau vu depuis la jonction au cap 128 ; alt 255.36 m</description><Point><coordinates>6.026560,45.447660,0</coordinates></Point></Placemark><Placemark><name>T09 jonction (tour) 2/5</name><description>score 2.77 ; 2262 m cap 356 ; Chemin ; filtres : eau≤150m vue ; ruisseau à 6 m (06T0000000012567332), coule vers 223 ; ruisseau vu depuis la jonction au cap 313 ; alt 255.58 m</description><Point><coordinates>6.028850,45.449220,0</coordinates></Point></Placemark><Placemark><name>T10 jonction (tour) 3/5</name><description>score 2.75 ; 2458 m cap 298 ; Sentier ; filtres : eau≤150m vue versant-E ; ruisseau à 145 m (l'Isère), coule vers 178 ; ruisseau vu depuis la jonction au cap 87 ; alt 279.41 m</description><Point><coordinates>6.002840,45.439020,0</coordinates></Point></Placemark><Placemark><name>F01 jonction (fort) 3/5</name><description>score 3.38 ; 1238 m cap 282 ; Chemin/Sentier ; filtres : eau≤150m vue versant-E ; ruisseau à 5 m, coule vers 97</description><Point><coordinates>5.971730,45.438130,0</coordinates></Point></Placemark><Placemark><name>F02 jonction (fort) 3/5</name><description>score 3.38 ; 1243 m cap 282 ; Sentier ; filtres : eau≤150m vue versant-E ; ruisseau à 6 m, coule vers 102</description><Point><coordinates>5.971670,45.438140,0</coordinates></Point></Placemark><Placemark><name>F03 jonction (fort) 3/5</name><description>score 2.90 ; 999 m cap 268 ; Chemin ; filtres : eau≤150m vue versant-E ; ruisseau à 129 m, coule vers 103</description><Point><coordinates>5.974450,45.435430,0</coordinates></Point></Placemark><Placemark><name>F04 jonction (fort) 3/5</name><description>score 2.89 ; 1066 m cap 275 ; Chemin/Sentier ; filtres : eau≤150m vue versant-E ; ruisseau à 116 m, coule vers 101</description><Point><coordinates>5.973640,45.436710,0</coordinates></Point></Placemark><Placemark><name>F05 jonction (fort) 2/5</name><description>score 1.87 ; 1270 m cap 74 ; Sentier ; filtres : eau≤150m versant-E ; ruisseau à 145 m, coule vers 178</description><Point><coordinates>6.002840,45.439020,0</coordinates></Point></Placemark><Placemark><name>F06 jonction (fort) 2/5</name><description>score 1.86 ; 1439 m cap 304 ; Sentier ; filtres : eau≤150m vue ; ruisseau à 136 m, coule vers 82</description><Point><coordinates>5.971910,45.443030,0</coordinates></Point></Placemark><Placemark><name>Bassin IGN : Étangs du Maupas (IoU 0.83)</name><description>3.6 km cap 216, aire 11202 m2 ; ressemblance non probante</description><Point><coordinates>6.003940,45.402524,0</coordinates></Point></Placemark><Placemark><name>Bassin IGN : Bassin du Cheylas (IoU 0.60)</name><description>6.0 km cap 214, aire 499089 m2 ; ressemblance non probante</description><Point><coordinates>5.988349,45.383986,0</coordinates></Point></Placemark><Placemark><name>Bassin IGN : Plan d'Eau des Lônes (IoU 0.48)</name><description>2.7 km cap 320, aire 131154 m2 ; ressemblance non probante</description><Point><coordinates>6.008434,45.447534,0</coordinates></Point></Placemark><Placemark><name>Topo avalon : AVALON</name><description>0.09 km cap 24 (cadastre:Saint-Maximin)</description><Point><coordinates>6.031255,45.429557,0</coordinates></Point></Placemark><Placemark><name>Topo bayard : VERGER DE BAYARD</name><description>1.06 km cap 230 (cadastre:Pontcharra)</description><Point><coordinates>6.020369,45.422730,0</coordinates></Point></Placemark><Placemark><name>Topo bayard : château bayard</name><description>1.10 km cap 237 (BDTOPO:toponymie)</description><Point><coordinates>6.018937,45.423371,0</coordinates></Point></Placemark><Placemark><name>Topo bayard : CHATEAU BAYARD</name><description>1.17 km cap 238 (cadastre:Pontcharra)</description><Point><coordinates>6.018064,45.423202,0</coordinates></Point></Placemark><Placemark><name>Topo bayard : caserne bayard</name><description>1.56 km cap 302 (BDTOPO:toponymie)</description><Point><coordinates>6.013764,45.436159,0</coordinates></Point></Placemark><Placemark><name>Topo bayard : bayard</name><description>1.62 km cap 310 (BDTOPO:toponymie)</description><Point><coordinates>6.014892,45.438176,0</coordinates></Point></Placemark><Placemark><name>Topo bayard : BOIS BAYARD</name><description>1.74 km cap 266 (cadastre:Pontcharra)</description><Point><coordinates>6.008577,45.427763,0</coordinates></Point></Placemark><Placemark><name>Topo bayard : CHENEVIERE DE BAYARD</name><description>2.04 km cap 294 (cadastre:Pontcharra)</description><Point><coordinates>6.006875,45.436272,0</coordinates></Point></Placemark><Placemark><name>Topo bayard : la bayarde et lepinay</name><description>2.54 km cap 221 (BDTOPO:toponymie)</description><Point><coordinates>6.009507,45.411550,0</coordinates></Point></Placemark><Placemark><name>Topo chant : CHANTE-MERLE</name><description>1.87 km cap 59 (cadastre:Saint-Maximin)</description><Point><coordinates>6.051416,45.437404,0</coordinates></Point></Placemark><Placemark><name>Topo chant : chantabord</name><description>2.54 km cap 18 (BDTOPO:toponymie)</description><Point><coordinates>6.041090,45.450502,0</coordinates></Point></Placemark><Placemark><name>Topo clairière : le clairfait</name><description>3.90 km cap 193 (BDTOPO:toponymie)</description><Point><coordinates>6.019381,45.394681,0</coordinates></Point></Placemark><Placemark><name>Topo clairière : LA MATRE ET CLAIRFAIT</name><description>3.92 km cap 190 (cadastre:Pontcharra)</description><Point><coordinates>6.022281,45.394056,0</coordinates></Point></Placemark><Placemark><name>Topo fontaine : fontaine de la frace</name><description>3.43 km cap 86 (BDTOPO:toponymie)</description><Point><coordinates>6.074671,45.431066,0</coordinates></Point></Placemark><Placemark><name>Topo loup : tire-loup</name><description>1.60 km cap 98 (BDTOPO:toponymie)</description><Point><coordinates>6.051051,45.426791,0</coordinates></Point></Placemark><Placemark><name>Topo loup : tire loup</name><description>1.60 km cap 98 (BDTOPO:toponymie)</description><Point><coordinates>6.051051,45.426791,0</coordinates></Point></Placemark><Placemark><name>Topo loup : tire loup et les taches</name><description>1.60 km cap 98 (BDTOPO:toponymie)</description><Point><coordinates>6.051051,45.426791,0</coordinates></Point></Placemark><Placemark><name>Topo rempart : LE CRET DU MUR</name><description>2.56 km cap 184 (cadastre:Pontcharra)</description><Point><coordinates>6.028290,45.405806,0</coordinates></Point></Placemark><Placemark><name>Topo rempart : MOLLARD BILLARD ET LES MURAILLES</name><description>3.83 km cap 133 (cadastre:Allevard)</description><Point><coordinates>6.066700,45.405328,0</coordinates></Point></Placemark><Placemark><name>Topo roche : LE CHENE LA ROCHE ET LE VIVIER</name><description>0.13 km cap 116 (cadastre:Saint-Maximin)</description><Point><coordinates>6.032323,45.428266,0</coordinates></Point></Placemark><Placemark><name>Topo roche : PRE CROCHET</name><description>0.71 km cap 285 (cadastre:Pontcharra)</description><Point><coordinates>6.022018,45.430424,0</coordinates></Point></Placemark><Placemark><name>Topo roche : le rochat</name><description>1.40 km cap 189 (BDTOPO:toponymie)</description><Point><coordinates>6.028125,45.416339,0</coordinates></Point></Placemark><Placemark><name>Topo roche : COTE ROCHAT</name><description>2.21 km cap 83 (cadastre:Saint-Maximin)</description><Point><coordinates>6.058862,45.431359,0</coordinates></Point></Placemark><Placemark><name>Topo roche : côte rochat</name><description>2.46 km cap 94 (BDTOPO:toponymie)</description><Point><coordinates>6.062271,45.427209,0</coordinates></Point></Placemark><Placemark><name>Topo roche : roche morte</name><description>3.05 km cap 206 (BDTOPO:toponymie)</description><Point><coordinates>6.013795,45.404096,0</coordinates></Point></Placemark><Placemark><name>Topo roche : maison de roche morte</name><description>3.05 km cap 206 (BDTOPO:toponymie)</description><Point><coordinates>6.013795,45.404096,0</coordinates></Point></Placemark><Placemark><name>Topo âne : ehpad le granier</name><description>0.76 km cap 336 (BDTOPO:toponymie)</description><Point><coordinates>6.026850,45.435012,0</coordinates></Point></Placemark></Document></kml>